CCSDS_OMM_VERS = 2.0
CREATION_DATE  = 
ORIGINATOR     = 

OBJECT_NAME    = SILVERSAT
OBJECT_ID      = 1998-067XV
CENTER_NAME    = EARTH
REF_FRAME      = TEME
TIME_SYSTEM    = UTC
MEAN_ELEMENT_THEORY = SGP/SGP4

EPOCH          = 2026-02-13T13:16:40.520928
MEAN_MOTION    = 15.64339222
ECCENTRICITY   = .00027499
INCLINATION    = 51.6263
RA_OF_ASC_NODE = 187.7333
ARG_OF_PERICENTER = 293.7998
MEAN_ANOMALY   = 66.2709

EPHEMERIS_TYPE = 0
CLASSIFICATION_TYPE = U
NORAD_CAT_ID   = 66909
ELEMENT_SET_NO = 999
REV_AT_EPOCH   = 1140
BSTAR          = .12579855E-2
MEAN_MOTION_DOT = .124119E-2
MEAN_MOTION_DDOT = 0

CCSDS_OMM_VERS = 2.0
CREATION_DATE  = 
ORIGINATOR     = 

OBJECT_NAME    = ISS OBJECT XW
OBJECT_ID      = 1998-067XW
CENTER_NAME    = EARTH
REF_FRAME      = TEME
TIME_SYSTEM    = UTC
MEAN_ELEMENT_THEORY = SGP/SGP4

EPOCH          = 2026-02-13T15:17:56.099904
MEAN_MOTION    = 15.62654303
ECCENTRICITY   = .00020375
INCLINATION    = 51.6252
RA_OF_ASC_NODE = 187.5401
ARG_OF_PERICENTER = 327.1583
MEAN_ANOMALY   = 32.9284

EPHEMERIS_TYPE = 0
CLASSIFICATION_TYPE = U
NORAD_CAT_ID   = 66910
ELEMENT_SET_NO = 999
REV_AT_EPOCH   = 1141
BSTAR          = .10213313E-2
MEAN_MOTION_DOT = .93835E-3
MEAN_MOTION_DDOT = 0

CCSDS_OMM_VERS = 2.0
CREATION_DATE  = 
ORIGINATOR     = 

OBJECT_NAME    = ISS OBJECT XX
OBJECT_ID      = 1998-067XX
CENTER_NAME    = EARTH
REF_FRAME      = TEME
TIME_SYSTEM    = UTC
MEAN_ELEMENT_THEORY = SGP/SGP4

EPOCH          = 2026-02-13T18:35:24.068832
MEAN_MOTION    = 15.65853496
ECCENTRICITY   = .00035725
INCLINATION    = 51.6235
RA_OF_ASC_NODE = 186.2005
ARG_OF_PERICENTER = 313.6050
MEAN_ANOMALY   = 46.4648

EPHEMERIS_TYPE = 0
CLASSIFICATION_TYPE = U
NORAD_CAT_ID   = 66911
ELEMENT_SET_NO = 999
REV_AT_EPOCH   = 1143
BSTAR          = .13632327E-2
MEAN_MOTION_DOT = .143289E-2
MEAN_MOTION_DDOT = 0

CCSDS_OMM_VERS = 2.0
CREATION_DATE  = 
ORIGINATOR     = 

OBJECT_NAME    = ISS OBJECT XY
OBJECT_ID      = 1998-067XY
CENTER_NAME    = EARTH
REF_FRAME      = TEME
TIME_SYSTEM    = UTC
MEAN_ELEMENT_THEORY = SGP/SGP4

EPOCH          = 2026-02-13T18:34:07.286880
MEAN_MOTION    = 15.59544600
ECCENTRICITY   = .00003767
INCLINATION    = 51.6274
RA_OF_ASC_NODE = 187.7075
ARG_OF_PERICENTER = 314.4648
MEAN_ANOMALY   = 45.6314

EPHEMERIS_TYPE = 0
CLASSIFICATION_TYPE = U
NORAD_CAT_ID   = 66912
ELEMENT_SET_NO = 999
REV_AT_EPOCH   = 1141
BSTAR          = .87786993E-3
MEAN_MOTION_DOT = .71234E-3
MEAN_MOTION_DDOT = 0

CCSDS_OMM_VERS = 2.0
CREATION_DATE  = 
ORIGINATOR     = 

OBJECT_NAME    = ISS OBJECT XZ
OBJECT_ID      = 1998-067XZ
CENTER_NAME    = EARTH
REF_FRAME      = TEME
TIME_SYSTEM    = UTC
MEAN_ELEMENT_THEORY = SGP/SGP4

EPOCH          = 2026-02-13T19:41:38.556096
MEAN_MOTION    = 15.49885626
ECCENTRICITY   = .00106893
INCLINATION    = 51.6300
RA_OF_ASC_NODE = 190.2688
ARG_OF_PERICENTER = 108.9251
MEAN_ANOMALY   = 251.2897

EPHEMERIS_TYPE = 0
CLASSIFICATION_TYPE = U
NORAD_CAT_ID   = 67683
ELEMENT_SET_NO = 999
REV_AT_EPOCH   = 108
BSTAR          = .661684E-3
MEAN_MOTION_DOT = .37408E-3
MEAN_MOTION_DDOT = 0

CCSDS_OMM_VERS = 2.0
CREATION_DATE  = 
ORIGINATOR     = 

OBJECT_NAME    = GXIBA-1
OBJECT_ID      = 1998-067YA
CENTER_NAME    = EARTH
REF_FRAME      = TEME
TIME_SYSTEM    = UTC
MEAN_ELEMENT_THEORY = SGP/SGP4

EPOCH          = 2026-02-13T19:37:16.097088
MEAN_MOTION    = 15.50665745
ECCENTRICITY   = .0012431
INCLINATION    = 51.6300
RA_OF_ASC_NODE = 190.2494
ARG_OF_PERICENTER = 103.4308
MEAN_ANOMALY   = 256.8068

EPHEMERIS_TYPE = 0
CLASSIFICATION_TYPE = U
NORAD_CAT_ID   = 67684
ELEMENT_SET_NO = 999
REV_AT_EPOCH   = 108
BSTAR          = .11252322E-2
MEAN_MOTION_DOT = .66032E-3
MEAN_MOTION_DDOT = 0

CCSDS_OMM_VERS = 2.0
CREATION_DATE  = 
ORIGINATOR     = 

OBJECT_NAME    = CORAL
OBJECT_ID      = 1998-067YB
CENTER_NAME    = EARTH
REF_FRAME      = TEME
TIME_SYSTEM    = UTC
MEAN_ELEMENT_THEORY = SGP/SGP4

EPOCH          = 2026-02-13T21:13:35.097600
MEAN_MOTION    = 15.50031538
ECCENTRICITY   = .00126081
INCLINATION    = 51.6299
RA_OF_ASC_NODE = 189.9452
ARG_OF_PERICENTER = 104.7725
MEAN_ANOMALY   = 255.4662

EPHEMERIS_TYPE = 0
CLASSIFICATION_TYPE = U
NORAD_CAT_ID   = 67685
ELEMENT_SET_NO = 999
REV_AT_EPOCH   = 109
BSTAR          = .75089158E-3
MEAN_MOTION_DOT = .42802E-3
MEAN_MOTION_DDOT = 0

CCSDS_OMM_VERS = 2.0
CREATION_DATE  = 
ORIGINATOR     = 

OBJECT_NAME    = ISS OBJECT YC
OBJECT_ID      = 1998-067YC
CENTER_NAME    = EARTH
REF_FRAME      = TEME
TIME_SYSTEM    = UTC
MEAN_ELEMENT_THEORY = SGP/SGP4

EPOCH          = 2026-02-13T19:40:00.117120
MEAN_MOTION    = 15.50176725
ECCENTRICITY   = .00077832
INCLINATION    = 51.6305
RA_OF_ASC_NODE = 190.2622
ARG_OF_PERICENTER = 79.5576
MEAN_ANOMALY   = 280.6290

EPHEMERIS_TYPE = 0
CLASSIFICATION_TYPE = U
NORAD_CAT_ID   = 67686
ELEMENT_SET_NO = 999
REV_AT_EPOCH   = 108
BSTAR          = .82860263E-3
MEAN_MOTION_DOT = .47462E-3
MEAN_MOTION_DDOT = 0

CCSDS_OMM_VERS = 2.0
CREATION_DATE  = 
ORIGINATOR     = 

OBJECT_NAME    = LEOPARD
OBJECT_ID      = 1998-067YD
CENTER_NAME    = EARTH
REF_FRAME      = TEME
TIME_SYSTEM    = UTC
MEAN_ELEMENT_THEORY = SGP/SGP4

EPOCH          = 2026-02-13T21:13:57.362880
MEAN_MOTION    = 15.49975126
ECCENTRICITY   = .0007864
INCLINATION    = 51.6304
RA_OF_ASC_NODE = 189.9473
ARG_OF_PERICENTER = 81.4556
MEAN_ANOMALY   = 278.7324

EPHEMERIS_TYPE = 0
CLASSIFICATION_TYPE = U
NORAD_CAT_ID   = 67687
ELEMENT_SET_NO = 999
REV_AT_EPOCH   = 101
BSTAR          = .72509918E-3
MEAN_MOTION_DOT = .41146E-3
MEAN_MOTION_DDOT = 0

CCSDS_OMM_VERS = 2.0
CREATION_DATE  = 
ORIGINATOR     = 

OBJECT_NAME    = ISS OBJECT YE
OBJECT_ID      = 1998-067YE
CENTER_NAME    = EARTH
REF_FRAME      = TEME
TIME_SYSTEM    = UTC
MEAN_ELEMENT_THEORY = SGP/SGP4

EPOCH          = 2026-02-13T18:07:24.992832
MEAN_MOTION    = 15.50106813
ECCENTRICITY   = .00077705
INCLINATION    = 51.6305
RA_OF_ASC_NODE = 190.5829
ARG_OF_PERICENTER = 80.0054
MEAN_ANOMALY   = 280.1811

EPHEMERIS_TYPE = 0
CLASSIFICATION_TYPE = U
NORAD_CAT_ID   = 67688
ELEMENT_SET_NO = 999
REV_AT_EPOCH   = 99
BSTAR          = .77401829E-3
MEAN_MOTION_DOT = .44176E-3
MEAN_MOTION_DDOT = 0

CCSDS_OMM_VERS = 2.0
CREATION_DATE  = 
ORIGINATOR     = 

OBJECT_NAME    = CREW DRAGON 12
OBJECT_ID      = 2026-031A
CENTER_NAME    = EARTH
REF_FRAME      = TEME
TIME_SYSTEM    = UTC
MEAN_ELEMENT_THEORY = SGP/SGP4

EPOCH          = 2026-02-13T14:39:05.346720
MEAN_MOTION    = 16.18051748
ECCENTRICITY   = .0025866
INCLINATION    = 51.6318
RA_OF_ASC_NODE = 191.8838
ARG_OF_PERICENTER = 226.1048
MEAN_ANOMALY   = 133.7834

EPHEMERIS_TYPE = 0
CLASSIFICATION_TYPE = U
NORAD_CAT_ID   = 67796
ELEMENT_SET_NO = 999
REV_AT_EPOCH   = 3
BSTAR          = .25516E-3
MEAN_MOTION_DOT = .465694E-2
MEAN_MOTION_DDOT = .11779E-4

