SILVERSAT               
1 66909U 98067XV  26044.55324677  .00124119  00000+0  12580-2 0  9990
2 66909  51.6263 187.7333 0002749 293.7998  66.2709 15.64339222 11409
ISS OBJECT XW           
1 66910U 98067XW  26044.63745486  .00093835  00000+0  10213-2 0  9997
2 66910  51.6252 187.5401 0002037 327.1583  32.9284 15.62654303 11412
ISS OBJECT XX           
1 66911U 98067XX  26044.77458413  .00143289  00000+0  13632-2 0  9991
2 66911  51.6235 186.2005 0003572 313.6050  46.4648 15.65853496 11437
ISS OBJECT XY           
1 66912U 98067XY  26044.77369545  .00071234  00000+0  87787-3 0  9992
2 66912  51.6274 187.7075 0000376 314.4648  45.6314 15.59544600 11411
ISS OBJECT XZ           
1 67683U 98067XZ  26044.82058514  .00037408  00000+0  66168-3 0  9990
2 67683  51.6300 190.2688 0010689 108.9251 251.2897 15.49885626  1088
GXIBA-1                 
1 67684U 98067YA  26044.81754742  .00066032  00000+0  11252-2 0  9994
2 67684  51.6300 190.2494 0012431 103.4308 256.8068 15.50665745  1085
CORAL                   
1 67685U 98067YB  26044.88443400  .00042802  00000+0  75089-3 0  9996
2 67685  51.6299 189.9452 0012608 104.7725 255.4662 15.50031538  1098
ISS OBJECT YC           
1 67686U 98067YC  26044.81944580  .00047462  00000+0  82860-3 0  9997
2 67686  51.6305 190.2622 0007783  79.5576 280.6290 15.50176725  1086
LEOPARD                 
1 67687U 98067YD  26044.88469170  .00041146  00000+0  72510-3 0  9996
2 67687  51.6304 189.9473 0007864  81.4556 278.7324 15.49975126  1014
ISS OBJECT YE           
1 67688U 98067YE  26044.75515038  .00044176  00000+0  77402-3 0  9999
2 67688  51.6305 190.5829 0007770  80.0054 280.1811 15.50106813   998
CREW DRAGON 12          
1 67796U 26031A   26044.61047855  .00465694  11779-4  25516-3 0  9994
2 67796  51.6318 191.8838 0025866 226.1048 133.7834 16.18051748    32
